CYGNUS NG-23            
1 65616U 25208A   25345.50919951  .00014464  00000+0  26545-3 0  9992
2 65616  51.6308 148.5724 0003316 235.7177 124.3498 15.49508857   222
DRAGONFLY               
1 65729U 98067XH  25345.46680131  .00266351  00000+0  19873-2 0  9999
2 65729  51.6236 142.2802 0006690 270.0967  89.9264 15.71355930 12960
1998-067XK              
1 65731U 98067XK  25345.45759966  .00152029  00000+0  14702-2 0  9996
2 65731  51.6282 143.7363 0005112 237.7502 122.2999 15.65405996 12940
RSP-03                  
1 65732U 98067XL  25345.46479526  .00197326  00000+0  16947-2 0  9991
2 65732  51.6260 143.0256 0005825 242.1359 117.9048 15.68184189 12961
GHS-01                  
1 65733U 98067XM  25345.16682996  .00274520  00000+0  18349-2 0  9996
2 65733  51.6283 143.2841 0006983 269.5740  90.4459 15.73916996 12935
YOTSUBA-KULOVER         
1 65941U 98067XN  25345.49501722  .00106075  00000+0  13143-2 0  9996
2 65941  51.6283 146.2338 0001469 240.9141 119.1704 15.59226693  9662
BOTAN                   
1 65942U 98067XP  25345.43932568  .00166728  00000+0  18042-2 0  9991
2 65942  51.6280 145.8622 0003281 229.3853 130.6856 15.62506210  9662
E-KAGAKU-1              
1 65943U 98067XQ  25344.27717868  .00100705  00000+0  12589-2 0  9990
2 65943  51.6298 152.3458 0005250 191.2269 168.8608 15.59004320  9476
HRC MONOBLOCK CAMERA    
1 66052U 98067XR  25345.17214677  .00051254  00000+0  78110-3 0  9999
2 66052  51.6288 149.3227 0003532 176.6815 183.4199 15.53961179  8590
HTV-X1                  
1 66174U 25241A   25345.50919951  .00014464  00000+0  26545-3 0  9999
2 66174  51.6308 148.5724 0003316 235.7177 124.3498 15.49508857   514
SZ-21 MODULE            
1 66515U 25246C   25345.51652335  .00042118  00000+0  46259-3 0  9995
2 66515  41.4773  23.5075 0006302 253.7333 106.2813 15.62393058  4254
SHENZHOU-22             
1 66645U 25272A   25345.49763178  .00036404  00000+0  45433-3 0  9997
2 66645  41.4684  24.2481 0008596  20.0947 340.0228 15.59100786263571
