CCSDS_OMM_VERS = 2.0
CREATION_DATE  = 
ORIGINATOR     = 

OBJECT_NAME    = CYGNUS NG-23
OBJECT_ID      = 2025-208A
CENTER_NAME    = EARTH
REF_FRAME      = TEME
TIME_SYSTEM    = UTC
MEAN_ELEMENT_THEORY = SGP/SGP4

EPOCH          = 2025-12-11T12:13:14.837664
MEAN_MOTION    = 15.49508857
ECCENTRICITY   = .00033166
INCLINATION    = 51.6308
RA_OF_ASC_NODE = 148.5724
ARG_OF_PERICENTER = 235.7177
MEAN_ANOMALY   = 124.3498

EPHEMERIS_TYPE = 0
CLASSIFICATION_TYPE = U
NORAD_CAT_ID   = 65616
ELEMENT_SET_NO = 999
REV_AT_EPOCH   = 22
BSTAR          = .26544961E-3
MEAN_MOTION_DOT = .14464E-3
MEAN_MOTION_DDOT = 0

CCSDS_OMM_VERS = 2.0
CREATION_DATE  = 
ORIGINATOR     = 

OBJECT_NAME    = DRAGONFLY
OBJECT_ID      = 1998-067XH
CENTER_NAME    = EARTH
REF_FRAME      = TEME
TIME_SYSTEM    = UTC
MEAN_ELEMENT_THEORY = SGP/SGP4

EPOCH          = 2025-12-11T11:12:11.633184
MEAN_MOTION    = 15.71355930
ECCENTRICITY   = .00066907
INCLINATION    = 51.6236
RA_OF_ASC_NODE = 142.2802
ARG_OF_PERICENTER = 270.0967
MEAN_ANOMALY   = 89.9264

EPHEMERIS_TYPE = 0
CLASSIFICATION_TYPE = U
NORAD_CAT_ID   = 65729
ELEMENT_SET_NO = 999
REV_AT_EPOCH   = 1296
BSTAR          = .19872701E-2
MEAN_MOTION_DOT = .266351E-2
MEAN_MOTION_DDOT = 0

CCSDS_OMM_VERS = 2.0
CREATION_DATE  = 
ORIGINATOR     = 

OBJECT_NAME    = 1998-067XK
OBJECT_ID      = 1998-067XK
CENTER_NAME    = EARTH
REF_FRAME      = TEME
TIME_SYSTEM    = UTC
MEAN_ELEMENT_THEORY = SGP/SGP4

EPOCH          = 2025-12-11T10:58:56.610624
MEAN_MOTION    = 15.65405996
ECCENTRICITY   = .00051121
INCLINATION    = 51.6282
RA_OF_ASC_NODE = 143.7363
ARG_OF_PERICENTER = 237.7502
MEAN_ANOMALY   = 122.2999

EPHEMERIS_TYPE = 0
CLASSIFICATION_TYPE = U
NORAD_CAT_ID   = 65731
ELEMENT_SET_NO = 999
REV_AT_EPOCH   = 1294
BSTAR          = .14701886E-2
MEAN_MOTION_DOT = .152029E-2
MEAN_MOTION_DDOT = 0

CCSDS_OMM_VERS = 2.0
CREATION_DATE  = 
ORIGINATOR     = 

OBJECT_NAME    = RSP-03
OBJECT_ID      = 1998-067XL
CENTER_NAME    = EARTH
REF_FRAME      = TEME
TIME_SYSTEM    = UTC
MEAN_ELEMENT_THEORY = SGP/SGP4

EPOCH          = 2025-12-11T11:09:18.310464
MEAN_MOTION    = 15.68184189
ECCENTRICITY   = .00058259
INCLINATION    = 51.6260
RA_OF_ASC_NODE = 143.0256
ARG_OF_PERICENTER = 242.1359
MEAN_ANOMALY   = 117.9048

EPHEMERIS_TYPE = 0
CLASSIFICATION_TYPE = U
NORAD_CAT_ID   = 65732
ELEMENT_SET_NO = 999
REV_AT_EPOCH   = 1296
BSTAR          = .16947067E-2
MEAN_MOTION_DOT = .197326E-2
MEAN_MOTION_DDOT = 0

CCSDS_OMM_VERS = 2.0
CREATION_DATE  = 
ORIGINATOR     = 

OBJECT_NAME    = GHS-01
OBJECT_ID      = 1998-067XM
CENTER_NAME    = EARTH
REF_FRAME      = TEME
TIME_SYSTEM    = UTC
MEAN_ELEMENT_THEORY = SGP/SGP4

EPOCH          = 2025-12-11T04:00:14.108544
MEAN_MOTION    = 15.73916996
ECCENTRICITY   = .00069838
INCLINATION    = 51.6283
RA_OF_ASC_NODE = 143.2841
ARG_OF_PERICENTER = 269.5740
MEAN_ANOMALY   = 90.4459

EPHEMERIS_TYPE = 0
CLASSIFICATION_TYPE = U
NORAD_CAT_ID   = 65733
ELEMENT_SET_NO = 999
REV_AT_EPOCH   = 1293
BSTAR          = .18348813E-2
MEAN_MOTION_DOT = .27452E-2
MEAN_MOTION_DDOT = 0

CCSDS_OMM_VERS = 2.0
CREATION_DATE  = 
ORIGINATOR     = 

OBJECT_NAME    = YOTSUBA-KULOVER
OBJECT_ID      = 1998-067XN
CENTER_NAME    = EARTH
REF_FRAME      = TEME
TIME_SYSTEM    = UTC
MEAN_ELEMENT_THEORY = SGP/SGP4

EPOCH          = 2025-12-11T11:52:49.487808
MEAN_MOTION    = 15.59226693
ECCENTRICITY   = .00014696
INCLINATION    = 51.6283
RA_OF_ASC_NODE = 146.2338
ARG_OF_PERICENTER = 240.9141
MEAN_ANOMALY   = 119.1704

EPHEMERIS_TYPE = 0
CLASSIFICATION_TYPE = U
NORAD_CAT_ID   = 65941
ELEMENT_SET_NO = 999
REV_AT_EPOCH   = 966
BSTAR          = .13142687E-2
MEAN_MOTION_DOT = .106075E-2
MEAN_MOTION_DDOT = 0

CCSDS_OMM_VERS = 2.0
CREATION_DATE  = 
ORIGINATOR     = 

OBJECT_NAME    = BOTAN
OBJECT_ID      = 1998-067XP
CENTER_NAME    = EARTH
REF_FRAME      = TEME
TIME_SYSTEM    = UTC
MEAN_ELEMENT_THEORY = SGP/SGP4

EPOCH          = 2025-12-11T10:32:37.738752
MEAN_MOTION    = 15.62506210
ECCENTRICITY   = .00032819
INCLINATION    = 51.6280
RA_OF_ASC_NODE = 145.8622
ARG_OF_PERICENTER = 229.3853
MEAN_ANOMALY   = 130.6856

EPHEMERIS_TYPE = 0
CLASSIFICATION_TYPE = U
NORAD_CAT_ID   = 65942
ELEMENT_SET_NO = 999
REV_AT_EPOCH   = 966
BSTAR          = .18041945E-2
MEAN_MOTION_DOT = .166728E-2
MEAN_MOTION_DDOT = 0

CCSDS_OMM_VERS = 2.0
CREATION_DATE  = 
ORIGINATOR     = 

OBJECT_NAME    = E-KAGAKU-1
OBJECT_ID      = 1998-067XQ
CENTER_NAME    = EARTH
REF_FRAME      = TEME
TIME_SYSTEM    = UTC
MEAN_ELEMENT_THEORY = SGP/SGP4

EPOCH          = 2025-12-10T06:39:08.237952
MEAN_MOTION    = 15.59004320
ECCENTRICITY   = .00052507
INCLINATION    = 51.6298
RA_OF_ASC_NODE = 152.3458
ARG_OF_PERICENTER = 191.2269
MEAN_ANOMALY   = 168.8608

EPHEMERIS_TYPE = 0
CLASSIFICATION_TYPE = U
NORAD_CAT_ID   = 65943
ELEMENT_SET_NO = 999
REV_AT_EPOCH   = 947
BSTAR          = .12588803E-2
MEAN_MOTION_DOT = .100705E-2
MEAN_MOTION_DDOT = 0

CCSDS_OMM_VERS = 2.0
CREATION_DATE  = 
ORIGINATOR     = 

OBJECT_NAME    = HRC MONOBLOCK CAMERA
OBJECT_ID      = 1998-067XR
CENTER_NAME    = EARTH
REF_FRAME      = TEME
TIME_SYSTEM    = UTC
MEAN_ELEMENT_THEORY = SGP/SGP4

EPOCH          = 2025-12-11T04:07:53.480928
MEAN_MOTION    = 15.53961179
ECCENTRICITY   = .00035327
INCLINATION    = 51.6288
RA_OF_ASC_NODE = 149.3227
ARG_OF_PERICENTER = 176.6815
MEAN_ANOMALY   = 183.4199

EPHEMERIS_TYPE = 0
CLASSIFICATION_TYPE = U
NORAD_CAT_ID   = 66052
ELEMENT_SET_NO = 999
REV_AT_EPOCH   = 859
BSTAR          = .78110434E-3
MEAN_MOTION_DOT = .51254E-3
MEAN_MOTION_DDOT = 0

CCSDS_OMM_VERS = 2.0
CREATION_DATE  = 
ORIGINATOR     = 

OBJECT_NAME    = HTV-X1
OBJECT_ID      = 2025-241A
CENTER_NAME    = EARTH
REF_FRAME      = TEME
TIME_SYSTEM    = UTC
MEAN_ELEMENT_THEORY = SGP/SGP4

EPOCH          = 2025-12-11T12:13:14.837664
MEAN_MOTION    = 15.49508857
ECCENTRICITY   = .00033166
INCLINATION    = 51.6308
RA_OF_ASC_NODE = 148.5724
ARG_OF_PERICENTER = 235.7177
MEAN_ANOMALY   = 124.3498

EPHEMERIS_TYPE = 0
CLASSIFICATION_TYPE = U
NORAD_CAT_ID   = 66174
ELEMENT_SET_NO = 999
REV_AT_EPOCH   = 51
BSTAR          = .26544961E-3
MEAN_MOTION_DOT = .14464E-3
MEAN_MOTION_DDOT = 0

CCSDS_OMM_VERS = 2.0
CREATION_DATE  = 
ORIGINATOR     = 

OBJECT_NAME    = SZ-21 MODULE
OBJECT_ID      = 2025-246C
CENTER_NAME    = EARTH
REF_FRAME      = TEME
TIME_SYSTEM    = UTC
MEAN_ELEMENT_THEORY = SGP/SGP4

EPOCH          = 2025-12-11T12:23:47.617440
MEAN_MOTION    = 15.62393058
ECCENTRICITY   = .00063024
INCLINATION    = 41.4773
RA_OF_ASC_NODE = 23.5075
ARG_OF_PERICENTER = 253.7333
MEAN_ANOMALY   = 106.2813

EPHEMERIS_TYPE = 0
CLASSIFICATION_TYPE = U
NORAD_CAT_ID   = 66515
ELEMENT_SET_NO = 999
REV_AT_EPOCH   = 425
BSTAR          = .46258705E-3
MEAN_MOTION_DOT = .42118E-3
MEAN_MOTION_DDOT = 0

CCSDS_OMM_VERS = 2.0
CREATION_DATE  = 
ORIGINATOR     = 

OBJECT_NAME    = SHENZHOU-22
OBJECT_ID      = 2025-272A
CENTER_NAME    = EARTH
REF_FRAME      = TEME
TIME_SYSTEM    = UTC
MEAN_ELEMENT_THEORY = SGP/SGP4

EPOCH          = 2025-12-11T11:56:35.385792
MEAN_MOTION    = 15.59100786
ECCENTRICITY   = .00085964
INCLINATION    = 41.4684
RA_OF_ASC_NODE = 24.2481
ARG_OF_PERICENTER = 20.0947
MEAN_ANOMALY   = 340.0228

EPHEMERIS_TYPE = 0
CLASSIFICATION_TYPE = U
NORAD_CAT_ID   = 66645
ELEMENT_SET_NO = 999
REV_AT_EPOCH   = 26357
BSTAR          = .45432813E-3
MEAN_MOTION_DOT = .36404E-3
MEAN_MOTION_DDOT = 0

